CAS-2T & KS-1Q          
1 41847U 16066G   20230.57482518  .00000029  00000-0  14250-4 0  9997
2 41847  98.6492 281.6866 0366399  46.9309 316.1940 14.38085065198202
NAYIF-1 (EO-88)         
1 42017U 17008BX  20230.44372485  .00001194  00000-0  48283-4 0  9998
2 42017  97.3561 297.1083 0007908 103.8414 256.3705 15.26646886194859
MAX VALIER SAT          
1 42778U 17036P   20230.39295148  .00000702  00000-0  32985-4 0  9993
2 42778  97.3003 282.3299 0012787 160.3282 199.8451 15.22711536175007
RADFXSAT (FOX-1B)       
1 43017U 17073E   20230.48249027  .00000181  00000-0  19877-4 0  9992
2 43017  97.7185 140.3609 0255965 211.2409 147.3377 14.78992167148186
FOX-1D (AO-92)          
1 43137U 18004AC  20230.47432517  .00000781  00000-0  34969-4 0  9992
2 43137  97.4424 301.2144 0008740 190.9497 169.1551 15.24222450144333
DIWATA-2B               
1 43678U 18084H   20230.45144107  .00000246  00000-0  30258-4 0  9996
2 43678  97.8903 348.8748 0009439 343.6633  16.4253 14.91647325 98113
ES'HAIL 2               
1 43700U 18090A   20230.28865036  .00000139  00000-0  00000+0 0  9999
2 43700   0.0138 103.8678 0001732  74.2764 277.6793  1.00270854  6569
FOX-1CLIFF (AO-95)      
1 43770U 18099N   20230.48257815  .00000574  00000-0  57661-4 0  9990
2 43770  97.7026 300.7894 0014355 359.9565   0.1652 14.95023840 93030
ITASAT 1                
1 43786U 18099AE  20230.46576270  .00000247  00000-0  27577-4 0  9994
2 43786  97.7038 301.2361 0014802 352.6150   7.4851 14.95355426 93053
JY1SAT (JO-97)          
1 43803U 18099AX  20230.47296396  .00000531  00000-0  53041-4 0  9994
2 43803  97.7000 301.0478 0014698 353.2642   6.8379 14.95539681 93050
PSAT2 (NO-104)          
1 44354U 19036R   20230.57504922  .00010039  00000-0  14350-3 0  9999
2 44354  28.5339 338.9337 0359759 244.2206 112.0845 15.04593436 63039
BRICSAT2 (NO-103)       
1 44355U 19036S   20230.54694514  .00018126  00000-0  24717-3 0  9997
2 44355  28.5336 326.9664 0334592 263.6900  92.5488 15.10981104 63159
JAISAT-1                
1 44419U 19038F   20230.47339538  .00000581  00000-0  36689-4 0  9992
2 44419  97.5433 191.3732 0019914 281.7027  78.1970 15.12867233 61829
DUCHIFAT-3              
1 44854U 19089C   20230.06884419  .00000161  00000-0  19389-4 0  9991
2 44854  36.9625 100.1165 0008502 205.5361 307.4144 14.99102501 37396
RS-44 & BREEZE-KM R/B   
1 44909U 19096E   20230.49789894  .00000018  00000-0  20083-4 0  9992
2 44909  82.5235 314.7556 0218478  83.8743 278.7201 12.79707624 29998
ORBITAL FACTORY 2 (OF-2)
1 45113U 19071C   20230.54869830  .00001378  00000-0  53314-4 0  9991
2 45113  51.6443  68.3745 0012299 278.0469  81.9117 15.33537900 30502
HUSKYSAT-1              
1 45119U 19071J   20230.51873051  .00000957  00000-0  40343-4 0  9994
2 45119  51.6443  68.1747 0011587 274.1651  85.8006 15.33740319 30495
